STARLINK-31185          
1 58788U 24012B   26068.96471196 -.00000116  00000+0  52798-5 0  9994
2 58788  43.0016 164.0753 0000522 331.1328  28.9495 15.27572210121270
HERMES-3                
1 63835U 25052BR  26068.93751242  .00020316  00000+0  69958-3 0  9995
2 63835  97.3987 324.6131 0007993 112.9583 247.2502 15.30039785 54863
